ONEWEB-0247             
1 48777U 21045L   23331.38022532  .00000166  00000+0  40784-3 0  9990
2 48777  87.9004  84.9068 0000414 127.6814 232.4354 13.15548156121765
ONEWEB-0245             
1 48778U 21045M   23331.37547628  .00001421  00000+0  37412-2 0  9996
2 48778  87.8994  84.9136 0001441 108.0205 252.1082 13.15542884121733
ONEWEB-0229             
1 48779U 21045N   23331.37071729 -.00000025  00000+0 -99159-4 0  9990
2 48779  87.8993  84.9054 0001537 106.2105 253.9194 13.15550636121767
ONEWEB-0228             
1 48780U 21045P   23331.38260545  .00000168  00000+0  41254-3 0  9997
2 48780  87.8993  84.8818 0001437 104.6714 255.4576 13.15547666121684
ONEWEB-0232             
1 48781U 21045Q   23331.37864832  .00000164  00000+0  40175-3 0  9993
2 48781  87.8946  84.9273 0001382  95.8911 264.2377 13.15547534122006
ONEWEB-0231             
1 48782U 21045R   23331.35646803 -.00000117  00000+0 -34473-3 0  9992
2 48782  87.9005  84.9180 0001293 107.7869 252.3402 13.15546982121694
ONEWEB-0234             
1 48783U 21045S   23331.37944328  .00000088  00000+0  20008-3 0  9992
2 48783  87.8995  84.8898 0002984 113.9014 246.2429 13.15547315121834
ONEWEB-0238             
1 48784U 21045T   23331.39973971  .00000237  00000+0  60834-3 0  9998
2 48784  87.8995  84.9000 0001713 103.3778 256.7542 13.14041635121734
